OBJECT_NAME,OBJECT_ID,EPOCH,MEAN_MOTION,ECCENTRICITY,INCLINATION,RA_OF_ASC_NODE,ARG_OF_PERICENTER,MEAN_ANOMALY,EPHEMERIS_TYPE,CLASSIFICATION_TYPE,NORAD_CAT_ID,ELEMENT_SET_NO,REV_AT_EPOCH,BSTAR,MEAN_MOTION_DOT,MEAN_MOTION_DDOT
STARLINK-37808,2026-161T,2026-07-23T17:45:40.311360,15.88345265,.00011803,53.1595,278.5761,243.4621,116.6284,0,U,100045,999,150,.24258454E-2,.744828E-2,0
STARLINK-37807,2026-161U,2026-07-23T17:45:39.297888,15.85502335,.00011617,53.1596,278.5754,189.7323,170.3680,0,U,100046,999,150,-.35061856E-2,-.788738E-2,0
STARLINK-37756,2026-161V,2026-07-23T14:43:05.922336,15.86191860,.0002425,53.1596,279.2071,6.2123,353.8931,0,U,100047,999,148,-.2700772E-2,-.639552E-2,0
STARLINK-37752,2026-161W,2026-07-23T14:42:09.410688,15.86330225,.00022693,53.1598,279.2024,7.6931,352.4128,0,U,100048,999,148,-.26704467E-2,-.636835E-2,0
STARLINK-37848,2026-161X,2026-07-23T14:41:11.817312,15.86452722,.00025222,53.1598,279.1991,346.7176,13.3782,0,U,100049,999,148,-.29751966E-2,-.708129E-2,0
STARLINK-37826,2026-161Y,2026-07-23T14:40:16.996512,15.86314584,.00022721,53.1598,279.1940,355.8222,4.2783,0,U,100050,999,148,.16036392E-2,.429513E-2,0
STARLINK-37677,2026-161Z,2026-07-23T11:36:10.828224,15.91385566,.00152876,53.1594,279.8174,198.0815,161.9671,0,U,100051,999,146,.15133745E-2,.499983E-2,.10755912E-3
STARLINK-37797,2026-161AA,2026-07-23T05:33:35.483616,15.91047654,.00117149,53.1594,281.0934,237.8418,122.1473,0,U,100052,999,142,.1829955E-2,.591721E-2,.14794855E-3
STARLINK-37796,2026-161AB,2026-07-23T14:37:33.184704,15.87053654,.00022498,53.1587,279.1794,6.3015,353.8039,0,U,100053,999,148,-.29453315E-2,-.721001E-2,0
STARLINK-37505,2026-161AC,2026-07-23T11:32:51.872352,15.89431488,.00018669,53.1590,279.8011,154.7839,205.3278,0,U,100054,999,146,-.15061404E-2,-.429271E-2,0
STARLINK-37605,2026-161AD,2026-07-24T07:13:19.329888,15.84312887,.00064729,53.1586,275.6680,13.9111,346.2090,0,U,100055,999,159,-.89143995E-2,-.178832E-1,0
STARLINK-37650,2026-161AE,2026-07-23T16:05:27.048480,15.87176544,.00013874,53.1595,278.8487,163.0545,197.0527,0,U,100056,999,149,-.29151414E-2,-.717947E-2,0
