{"epoch":1784902576,"count":18312,"objects":[{"id":"100045","name":"STARLINK-37808","type":"PAYLOAD","l1":"1 A0045U          26204.74004990  .00744828  00000-0  24258-2 0  9992","l2":"2 A0045  53.1595 278.5761 0001180 243.4621 116.6284 15.88345265  1508"},{"id":"100046","name":"STARLINK-37807","type":"PAYLOAD","l1":"1 A0046U          26204.74003817 -.00788738  00000-0 -35062-2 0  9995","l2":"2 A0046  53.1596 278.5754 0001162 189.7323 170.3680 15.85502335  1500"},{"id":"100047","name":"STARLINK-37756","type":"PAYLOAD","l1":"1 A0047U          26204.61326299 -.00639552  00000-0 -27008-2 0  9994","l2":"2 A0047  53.1596 279.2071 0002425   6.2123 353.8931 15.86191860  1487"},{"id":"100048","name":"STARLINK-37752","type":"PAYLOAD","l1":"1 A0048U          26204.61260892 -.00636835  00000-0 -26704-2 0  9994","l2":"2 A0048  53.1598 279.2024 0002269   7.6931 352.4128 15.86330225  1489"},{"id":"100049","name":"STARLINK-37848","type":"PAYLOAD","l1":"1 A0049U          26204.61194233 -.00708129  00000-0 -29752-2 0  9992","l2":"2 A0049  53.1598 279.1991 0002522 346.7176  13.3782 15.86452722  1488"},{"id":"100050","name":"STARLINK-37826","type":"PAYLOAD","l1":"1 A0050U          26204.61130783  .00429513  00000-0  16036-2 0  9990","l2":"2 A0050  53.1598 279.1940 0002272 355.8222   4.2783 15.86314584  1482"},{"id":"100051","name":"STARLINK-37677","type":"PAYLOAD","l1":"1 A0051U 26161Z   26204.48345866  .00499983  10756-3  15134-2 0  9990","l2":"2 A0051  53.1594 279.8174 0015288 198.0815 161.9671 15.91385566  1460"},{"id":"100052","name":"STARLINK-37797","type":"PAYLOAD","l1":"1 A0052U          26204.23166069  .00591721  14795-3  18300-2 0  9992","l2":"2 A0052  53.1594 281.0934 0011715 237.8418 122.1473 15.91047654  1420"},{"id":"100053","name":"STARLINK-37796","type":"PAYLOAD","l1":"1 A0053U          26204.60941186 -.00721001  00000-0 -29453-2 0  9995","l2":"2 A0053  53.1587 279.1794 0002250   6.3015 353.8039 15.87053654  1480"},{"id":"100054","name":"STARLINK-37505","type":"PAYLOAD","l1":"1 A0054U          26204.48115593 -.00429271  00000-0 -15061-2 0  9991","l2":"2 A0054  53.1590 279.8011 0001867 154.7839 205.3278 15.89431488  1460"},{"id":"100055","name":"STARLINK-37605","type":"PAYLOAD","l1":"1 A0055U          26205.30091817 -.01788320  00000-0 -89144-2 0  9993","l2":"2 A0055  53.1586 275.6680 0006473  13.9111 346.2090 15.84312887  1596"},{"id":"100056","name":"STARLINK-37650","type":"PAYLOAD","l1":"1 A0056U          26204.67045195 -.00717947  00000-0 -29151-2 0  9999","l2":"2 A0056  53.1595 278.8487 0001387 163.0545 197.0527 15.87176544  1491"}]}